{
  "type": "FeatureCollection",
  "features": [
    {
      "type": "Feature",
      "geometry": {
        "type": "Polygon",
        "coordinates": [
          [
            [
              -124.6185769997992,
              42.803283000014474
            ],
            [
              -124.61292100015787,
              42.76920300005588
            ],
            [
              -124.4964629997878,
              42.71694000008738
            ],
            [
              -124.47722899966129,
              42.68618400017286
            ],
            [
              -124.38800099988138,
              42.708370000215886
            ],
            [
              -124.27695100035383,
              42.656065000158165
            ],
            [
              -124.28478200006275,
              42.50114900009408
            ],
            [
              -124.2086029999652,
              42.489282999890406
            ],
            [
              -124.12273100008557,
              42.55644800031662
            ],
            [
              -124.05391800026487,
              42.547683999958195
            ],
            [
              -124.02866299972574,
              42.490552999760666
            ],
            [
              -123.89065700014272,
              42.500537999863845
            ],
            [
              -123.85479800032556,
              42.549735999731084
            ],
            [
              -123.83176200023496,
              42.63256100010737
            ],
            [
              -123.75726299973736,
              42.72058399974972
            ],
            [
              -123.7315539996368,
              42.77223600020221
            ],
            [
              -123.77732200004438,
              42.798988000193326
            ],
            [
              -123.92549900015871,
              42.77493300019519
            ],
            [
              -123.92629800039995,
              42.7394329997141
            ],
            [
              -123.99700000005801,
              42.68563199987714
            ],
            [
              -124.08998799996921,
              42.685439999772974
            ],
            [
              -124.13893900002469,
              42.670819000231006
            ],
            [
              -124.1599409996147,
              42.73963199986919
            ],
            [
              -124.18068100016221,
              42.88233800002858
            ],
            [
              -124.25711100032994,
              42.95475700016007
            ],
            [
              -124.48989099972934,
              42.95478299979683
            ],
            [
              -124.5525619996619,
              42.858848999675466
            ],
            [
              -124.6185769997992,
              42.803283000014474
            ]
          ]
        ]
      },
      "properties": {
        "CENSUSTRAC": "41015950100",
        "STATENAME": "Oregon",
        "COUNTYNAME": "Curry",
        "FFIEC_LEVEL": "Moderate",
        "USDA_INELIGIBLE": false,
        "TRIFECTA": true
      }
    },
    {
      "type": "Feature",
      "geometry": {
        "type": "Polygon",
        "coordinates": [
          [
            [
              -122.82070500026168,
              45.846331000230144
            ],
            [
              -122.80064400030483,
              45.84472899980157
            ],
            [
              -122.7850260003696,
              45.86769899985411
            ],
            [
              -122.80194200031339,
              45.87809699976783
            ],
            [
              -122.82070500026168,
              45.846331000230144
            ]
          ]
        ]
      },
      "properties": {
        "CENSUSTRAC": "41009970700",
        "STATENAME": "Oregon",
        "COUNTYNAME": "Columbia",
        "FFIEC_LEVEL": "Moderate",
        "USDA_INELIGIBLE": false,
        "TRIFECTA": true
      }
    },
    {
      "type": "Feature",
      "geometry": {
        "type": "Polygon",
        "coordinates": [
          [
            [
              -116.96836399997959,
              44.003151999745235
            ],
            [
              -117.06574100038404,
              44.01038199983497
            ],
            [
              -117.06577300017109,
              43.99595400031125
            ],
            [
              -116.96836399997959,
              44.003151999745235
            ]
          ]
        ]
      },
      "properties": {
        "CENSUSTRAC": "41045970300",
        "STATENAME": "Oregon",
        "COUNTYNAME": "Malheur",
        "FFIEC_LEVEL": "Moderate",
        "USDA_INELIGIBLE": false,
        "TRIFECTA": true
      }
    },
    {
      "type": "Feature",
      "geometry": {
        "type": "Polygon",
        "coordinates": [
          [
            [
              -124.29765800039107,
              43.3477579997553
            ],
            [
              -124.26295199991918,
              43.33968000009355
            ],
            [
              -124.24939799972344,
              43.3915030002539
            ],
            [
              -124.28409900017246,
              43.39554000011376
            ],
            [
              -124.29765800039107,
              43.3477579997553
            ]
          ]
        ]
      },
      "properties": {
        "CENSUSTRAC": "41011000504",
        "STATENAME": "Oregon",
        "COUNTYNAME": "Coos",
        "FFIEC_LEVEL": "Moderate",
        "USDA_INELIGIBLE": false,
        "TRIFECTA": true
      }
    },
    {
      "type": "Feature",
      "geometry": {
        "type": "Polygon",
        "coordinates": [
          [
            [
              -121.41831900040197,
              44.82502600011279
            ],
            [
              -121.761281000389,
              44.82564000010348
            ],
            [
              -121.8185810001873,
              44.790041000112566
            ],
            [
              -121.79767699960827,
              44.64396499970812
            ],
            [
              -121.71267900031296,
              44.64105699973512
            ],
            [
              -121.6529609998745,
              44.57119100027069
            ],
            [
              -121.5968839997417,
              44.61968200028918
            ],
            [
              -121.61390900036373,
              44.64876199981655
            ],
            [
              -121.55625499966479,
              44.67536899973777
            ],
            [
              -121.44700600011103,
              44.59342999990881
            ],
            [
              -121.31569200023704,
              44.58493899969134
            ],
            [
              -121.27758999968192,
              44.601529000133006
            ],
            [
              -121.23264399998011,
              44.68890799997147
            ],
            [
              -121.24747199989493,
              44.72587300009712
            ],
            [
              -121.19418699959776,
              44.78594199991932
            ],
            [
              -121.12323499969446,
              44.79575899972313
            ],
            [
              -121.09165900006536,
              44.825143000235606
            ],
            [
              -121.41831900040197,
              44.82502600011279
            ]
          ]
        ]
      },
      "properties": {
        "CENSUSTRAC": "41031940000",
        "STATENAME": "Oregon",
        "COUNTYNAME": "Jefferson",
        "FFIEC_LEVEL": "Low",
        "USDA_INELIGIBLE": false,
        "TRIFECTA": true
      }
    },
    {
      "type": "Feature",
      "geometry": {
        "type": "Polygon",
        "coordinates": [
          [
            [
              -123.11195000029684,
              45.52772199976887
            ],
            [
              -123.07925800023408,
              45.534823999701246
            ],
            [
              -123.07346699997521,
              45.55147400002667
            ],
            [
              -123.10609999958841,
              45.54782500015468
            ],
            [
              -123.11195000029684,
              45.52772199976887
            ]
          ]
        ]
      },
      "properties": {
        "CENSUSTRAC": "41067033200",
        "STATENAME": "Oregon",
        "COUNTYNAME": "Washington",
        "FFIEC_LEVEL": "Moderate",
        "USDA_INELIGIBLE": false,
        "TRIFECTA": true
      }
    },
    {
      "type": "Feature",
      "geometry": {
        "type": "Polygon",
        "coordinates": [
          [
            [
              -121.34728899978255,
              42.746667999747956
            ],
            [
              -121.34936000009307,
              43.11168199978383
            ],
            [
              -121.43776400041565,
              43.10063099987626
            ],
            [
              -121.51336900040285,
              43.11361899997813
            ],
            [
              -121.55423600013111,
              43.087658999792154
            ],
            [
              -121.62522900004232,
              43.09954399983587
            ],
            [
              -121.80386600025038,
              43.08140899990631
            ],
            [
              -121.90089200012724,
              42.85701099973428
            ],
            [
              -121.94027400024922,
              42.80937399990229
            ],
            [
              -121.992136999791,
              42.778120000147396
            ],
            [
              -122.00877300025059,
              42.73375099983866
            ],
            [
              -121.97822699994309,
              42.63615100000011
            ],
            [
              -121.93004199961858,
              42.57960799970786
            ],
            [
              -121.93391300007796,
              42.52889300021545
            ],
            [
              -122.00528099990785,
              42.49095299990875
            ],
            [
              -121.97146499991386,
              42.46019699992838
            ],
            [
              -121.90734799983474,
              42.463222000176934
            ],
            [
              -121.82518699968261,
              42.402245000289234
            ],
            [
              -121.75527000002212,
              42.43985399968327
            ],
            [
              -121.5430889998066,
              42.405751999964735
            ],
            [
              -121.46241499980887,
              42.287314999894534
            ],
            [
              -121.39813399969823,
              42.3258560000381
            ],
            [
              -121.39590599992718,
              42.36584999979145
            ],
            [
              -121.26204299989182,
              42.364925000308304
            ],
            [
              -121.20470600028358,
              42.345789999963266
            ],
            [
              -121.11490000019539,
              42.43091800019999
            ],
            [
              -121.09553299999949,
              42.50156200013694
            ],
            [
              -121.11326400007805,
              42.543727999679774
            ],
            [
              -121.08256799998273,
              42.59911499970267
            ],
            [
              -121.07596099976419,
              42.660528999997446
            ],
            [
              -121.13429199960731,
              42.693010999821404
            ],
            [
              -121.13195800042938,
              42.746287000047545
            ],
            [
              -121.34728899978255,
              42.746667999747956
            ]
          ]
        ]
      },
      "properties": {
        "CENSUSTRAC": "41035970200",
        "STATENAME": "Oregon",
        "COUNTYNAME": "Klamath",
        "FFIEC_LEVEL": "Low",
        "USDA_INELIGIBLE": false,
        "TRIFECTA": true
      }
    },
    {
      "type": "Feature",
      "geometry": {
        "type": "Polygon",
        "coordinates": [
          [
            [
              -121.77538000038277,
              42.20289200024133
            ],
            [
              -121.77111899993604,
              42.206433000073595
            ],
            [
              -121.77146799991549,
              42.2244220002356
            ],
            [
              -121.7823669996446,
              42.215435000040635
            ],
            [
              -121.77538000038277,
              42.20289200024133
            ]
          ]
        ]
      },
      "properties": {
        "CENSUSTRAC": "41035971800",
        "STATENAME": "Oregon",
        "COUNTYNAME": "Klamath",
        "FFIEC_LEVEL": "Moderate",
        "USDA_INELIGIBLE": false,
        "TRIFECTA": true
      }
    },
    {
      "type": "Feature",
      "geometry": {
        "type": "Polygon",
        "coordinates": [
          [
            [
              -122.95450800002261,
              45.28581699984792
            ],
            [
              -122.94694500010228,
              45.30642499978227
            ],
            [
              -122.96856799965833,
              45.298636000265624
            ],
            [
              -122.95450800002261,
              45.28581699984792
            ]
          ]
        ]
      },
      "properties": {
        "CENSUSTRAC": "41071030202",
        "STATENAME": "Oregon",
        "COUNTYNAME": "Yamhill",
        "FFIEC_LEVEL": "Moderate",
        "USDA_INELIGIBLE": false,
        "TRIFECTA": true
      }
    },
    {
      "type": "Feature",
      "geometry": {
        "type": "Polygon",
        "coordinates": [
          [
            [
              -123.4948180002875,
              45.07520500007901
            ],
            [
              -123.39657499969465,
              45.07510399995484
            ],
            [
              -123.40174599981239,
              45.12241000029279
            ],
            [
              -123.4723529999342,
              45.112032000146876
            ],
            [
              -123.50984700004378,
              45.198953999839155
            ],
            [
              -123.4853430000653,
              45.21591499998392
            ],
            [
              -123.78440999958856,
              45.216033999773536
            ],
            [
              -123.78479399972811,
              45.07631500006438
            ],
            [
              -123.4948180002875,
              45.07520500007901
            ]
          ]
        ]
      },
      "properties": {
        "CENSUSTRAC": "41071030502",
        "STATENAME": "Oregon",
        "COUNTYNAME": "Yamhill",
        "FFIEC_LEVEL": "Moderate",
        "USDA_INELIGIBLE": false,
        "TRIFECTA": true
      }
    },
    {
      "type": "Feature",
      "geometry": {
        "type": "Polygon",
        "coordinates": [
          [
            [
              -123.25846600017944,
              45.1614529997854
            ],
            [
              -123.16497899960265,
              45.18096600006861
            ],
            [
              -123.16878099956675,
              45.2297000001306
            ],
            [
              -123.25846600017944,
              45.1614529997854
            ]
          ]
        ]
      },
      "properties": {
        "CENSUSTRAC": "41071030601",
        "STATENAME": "Oregon",
        "COUNTYNAME": "Yamhill",
        "FFIEC_LEVEL": "Moderate",
        "USDA_INELIGIBLE": false,
        "TRIFECTA": true
      }
    },
    {
      "type": "Feature",
      "geometry": {
        "type": "Polygon",
        "coordinates": [
          [
            [
              -119.0650590004395,
              43.51258000013836
            ],
            [
              -119.0201220000602,
              43.511788000268965
            ],
            [
              -119.01994899980785,
              43.6152850001584
            ],
            [
              -119.00047500038013,
              43.63857999996781
            ],
            [
              -118.99737999969746,
              43.79234600000723
            ],
            [
              -118.9240920000681,
              43.87887699978216
            ],
            [
              -118.93194799989138,
              43.959875999806194
            ],
            [
              -119.49770399959279,
              43.957417999973124
            ],
            [
              -119.7756530000734,
              43.95906800005561
            ],
            [
              -119.77752600001719,
              43.69808099994735
            ],
            [
              -119.89817200014076,
              43.69832299967677
            ],
            [
              -119.89480799984456,
              43.56791399973254
            ],
            [
              -119.81556900012274,
              43.523280000209304
            ],
            [
              -119.7671279997052,
              43.53732599999178
            ],
            [
              -119.49521600042905,
              43.54233499988496
            ],
            [
              -119.32905799999094,
              43.533789999949356
            ],
            [
              -119.17886099961974,
              43.51226900015314
            ],
            [
              -119.1002610003056,
              43.523498999972986
            ],
            [
              -119.0650590004395,
              43.51258000013836
            ]
          ]
        ]
      },
      "properties": {
        "CENSUSTRAC": "41025960100",
        "STATENAME": "Oregon",
        "COUNTYNAME": "Harney",
        "FFIEC_LEVEL": "Moderate",
        "USDA_INELIGIBLE": false,
        "TRIFECTA": true
      }
    }
  ]
}